start=new Date('2022-11-02T00:00:00.000Z').valueOf();
sats=[{"MEAN_MOTION":"15.06389023","RA_OF_ASC_NODE":"306.3162","SITE":"AFETR","MEAN_ANOMALY":"314.3950","ARG_OF_PERICENTER":"45.7197","PERIAPSIS":"545.906","OBJECT_TYPE":"PAYLOAD","LAUNCH_DATE":"2021-03-04","INCLINATION":"53.0555","NORAD_CAT_ID":"47746","PERIOD":"95.593","CENTER_NAME":"EARTH","FILE":"3640431","APOAPSIS":"548.588","TIME_SYSTEM":"UTC","ELEMENT_SET_NO":"999","CLASSIFICATION_TYPE":"U","EPHEMERIS_TYPE":"0","OBJECT_NAME":"STARLINK-2160","RCS_SIZE":"LARGE","TLE_LINE2":"2 47746  53.0555 306.3162 0001936  45.7197 314.3950 15.06389023 93235","REV_AT_EPOCH":"9323","MEAN_ELEMENT_THEORY":"SGP4","REF_FRAME":"TEME","EPOCH":"2022-11-01T16:53:08.517120","GP_ID":"216683707","SEMIMAJOR_AXIS":"6925.382","COUNTRY_CODE":"US","MEAN_MOTION_DDOT":"0.0000000000000","TLE_LINE1":"1 47746U 21017AA  22305.70357080 -.00002197  00000-0 -12869-3 0  9991","BSTAR":"-0.00012869000000","OBJECT_ID":"2021-017AA","DECAY_DATE":null,"MEAN_MOTION_DOT":"-0.00002197","ECCENTRICITY":"0.00019360"},{"ECCENTRICITY":"0.00022780","MEAN_MOTION_DOT":"0.00000532","BSTAR":"0.00005462800000","DECAY_DATE":null,"OBJECT_ID":"2021-017AB","GP_ID":"216683957","SEMIMAJOR_AXIS":"6925.327","EPOCH":"2022-11-01T16:49:08.332896","REF_FRAME":"TEME","MEAN_MOTION_DDOT":"0.0000000000000","TLE_LINE1":"1 47747U 21017AB  22305.70079089  .00000532  00000-0  54628-4 0  9991","COUNTRY_CODE":"US","REV_AT_EPOCH":"9341","TLE_LINE2":"2 47747  53.0544 296.3096 0002278  35.1687 324.9452 15.06406887 93417","MEAN_ELEMENT_THEORY":"SGP4","EPHEMERIS_TYPE":"0","CLASSIFICATION_TYPE":"U","TIME_SYSTEM":"UTC","ELEMENT_SET_NO":"999","RCS_SIZE":"LARGE","OBJECT_NAME":"STARLINK-2161","NORAD_CAT_ID":"47747","PERIOD":"95.592","CENTER_NAME":"EARTH","APOAPSIS":"548.770","FILE":"3640431","PERIAPSIS":"545.615","ARG_OF_PERICENTER":"35.1687","LAUNCH_DATE":"2021-03-04","INCLINATION":"53.0544","OBJECT_TYPE":"PAYLOAD","SITE":"AFETR","RA_OF_ASC_NODE":"296.3096","MEAN_MOTION":"15.06406887","MEAN_ANOMALY":"324.9452"},{"EPHEMERIS_TYPE":"0","CLASSIFICATION_TYPE":"U","ELEMENT_SET_NO":"999","TIME_SYSTEM":"UTC","RCS_SIZE":"LARGE","OBJECT_NAME":"STARLINK-2162","CENTER_NAME":"EARTH","PERIOD":"95.592","NORAD_CAT_ID":"47748","APOAPSIS":"549.017","FILE":"3640431","PERIAPSIS":"545.389","ARG_OF_PERICENTER":"43.2399","LAUNCH_DATE":"2021-03-04","INCLINATION":"53.0550","OBJECT_TYPE":"PAYLOAD","SITE":"AFETR","RA_OF_ASC_NODE":"296.3475","MEAN_MOTION":"15.06403460","MEAN_ANOMALY":"316.8795","ECCENTRICITY":"0.00026190","MEAN_MOTION_DOT":"0.00002192","BSTAR":"0.00016599000000","DECAY_DATE":null,"OBJECT_ID":"2021-017AC","GP_ID":"216684706","SEMIMAJOR_AXIS":"6925.338","EPOCH":"2022-11-01T16:38:31.544160","REF_FRAME":"TEME","MEAN_MOTION_DDOT":"0.0000000000000","TLE_LINE1":"1 47748U 21017AC  22305.69342065  .00002192  00000-0  16599-3 0  9995","COUNTRY_CODE":"US","REV_AT_EPOCH":"9338","TLE_LINE2":"2 47748  53.0550 296.3475 0002619  43.2399 316.8795 15.06403460 93385","MEAN_ELEMENT_THEORY":"SGP4"},{"SITE":"AFETR","MEAN_MOTION":"15.06395617","RA_OF_ASC_NODE":"296.2897","MEAN_ANOMALY":"319.0612","ARG_OF_PERICENTER":"41.0530","PERIAPSIS":"545.816","INCLINATION":"53.0563","LAUNCH_DATE":"2021-03-04","OBJECT_TYPE":"PAYLOAD","PERIOD":"95.592","NORAD_CAT_ID":"47749","CENTER_NAME":"EARTH","APOAPSIS":"548.638","FILE":"3640431","CLASSIFICATION_TYPE":"U","EPHEMERIS_TYPE":"0","TIME_SYSTEM":"UTC","ELEMENT_SET_NO":"999","OBJECT_NAME":"STARLINK-2163","RCS_SIZE":"MEDIUM","TLE_LINE2":"2 47749  53.0563 296.2897 0002037  41.0530 319.0612 15.06395617 93381","REV_AT_EPOCH":"9338","MEAN_ELEMENT_THEORY":"SGP4","SEMIMAJOR_AXIS":"6925.362","GP_ID":"216684955","REF_FRAME":"TEME","EPOCH":"2022-11-01T16:59:46.035744","MEAN_MOTION_DDOT":"0.0000000000000","TLE_LINE1":"1 47749U 21017AD  22305.70817171  .00000784  00000-0  71566-4 0  9994","COUNTRY_CODE":"US","BSTAR":"0.00007156600000","DECAY_DATE":null,"OBJECT_ID":"2021-017AD","ECCENTRICITY":"0.00020370","MEAN_MOTION_DOT":"0.00000784"},{"MEAN_MOTION_DOT":"-0.00000689","ECCENTRICITY":"0.00024230","BSTAR":"-0.00002736100000","OBJECT_ID":"2021-017AE","DECAY_DATE":null,"REF_FRAME":"TEME","EPOCH":"2022-11-01T16:27:55.476864","GP_ID":"216684208","SEMIMAJOR_AXIS":"6925.362","COUNTRY_CODE":"US","MEAN_MOTION_DDOT":"0.0000000000000","TLE_LINE1":"1 47750U 21017AE  22305.68605876 -.00000689  00000-0 -27361-4 0  9990","TLE_LINE2":"2 47750  53.0540 296.3761 0002423  40.4713 319.6456 15.06395587 93382","REV_AT_EPOCH":"9338","MEAN_ELEMENT_THEORY":"SGP4","ELEMENT_SET_NO":"999","TIME_SYSTEM":"UTC","CLASSIFICATION_TYPE":"U","EPHEMERIS_TYPE":"0","OBJECT_NAME":"STARLINK-2164","RCS_SIZE":"LARGE","CENTER_NAME":"EARTH","PERIOD":"95.592","NORAD_CAT_ID":"47750","FILE":"3640431","APOAPSIS":"548.905","ARG_OF_PERICENTER":"40.4713","PERIAPSIS":"545.549","OBJECT_TYPE":"PAYLOAD","INCLINATION":"53.0540","LAUNCH_DATE":"2021-03-04","MEAN_MOTION":"15.06395587","RA_OF_ASC_NODE":"296.3761","SITE":"AFETR","MEAN_ANOMALY":"319.6456"},{"EPOCH":"2022-11-01T18:47:14.777088","REF_FRAME":"TEME","GP_ID":"216684458","SEMIMAJOR_AXIS":"6925.327","COUNTRY_CODE":"US","MEAN_MOTION_DDOT":"0.0000000000000","TLE_LINE1":"1 47751U 21017AF  22305.78280992 -.00001812  00000-0 -10273-3 0  9992","REV_AT_EPOCH":"9354","TLE_LINE2":"2 47751  53.0563 285.9574 0002657  32.2657 327.8494 15.06407008 93542","MEAN_ELEMENT_THEORY":"SGP4","MEAN_MOTION_DOT":"-0.00001812","ECCENTRICITY":"0.00026570","BSTAR":"-0.00010273000000","OBJECT_ID":"2021-017AF","DECAY_DATE":null,"PERIAPSIS":"545.352","ARG_OF_PERICENTER":"32.2657","OBJECT_TYPE":"PAYLOAD","INCLINATION":"53.0563","LAUNCH_DATE":"2021-03-04","RA_OF_ASC_NODE":"285.9574","MEAN_MOTION":"15.06407008","SITE":"AFETR","MEAN_ANOMALY":"327.8494","TIME_SYSTEM":"UTC","ELEMENT_SET_NO":"999","EPHEMERIS_TYPE":"0","CLASSIFICATION_TYPE":"U","RCS_SIZE":"LARGE","OBJECT_NAME":"STARLINK-2168","PERIOD":"95.592","NORAD_CAT_ID":"47751","CENTER_NAME":"EARTH","FILE":"3640431","APOAPSIS":"549.032"},{"LAUNCH_DATE":"2021-03-04","INCLINATION":"53.0557","OBJECT_TYPE":"PAYLOAD","ARG_OF_PERICENTER":"48.7759","PERIAPSIS":"545.989","MEAN_ANOMALY":"311.3385","SITE":"AFETR","MEAN_MOTION":"15.06392962","RA_OF_ASC_NODE":"300.8012","OBJECT_NAME":"STARLINK-2169","RCS_SIZE":"LARGE","CLASSIFICATION_TYPE":"U","EPHEMERIS_TYPE":"0","ELEMENT_SET_NO":"999","TIME_SYSTEM":"UTC","APOAPSIS":"548.481","FILE":"3640431","NORAD_CAT_ID":"47752","PERIOD":"95.593","CENTER_NAME":"EARTH","TLE_LINE1":"1 47752U 21017AG  22305.81644860  .00000580  00000-0  57827-4 0  9991","MEAN_MOTION_DDOT":"0.0000000000000","COUNTRY_CODE":"US","GP_ID":"216685207","SEMIMAJOR_AXIS":"6925.370","REF_FRAME":"TEME","EPOCH":"2022-11-01T19:35:41.159040","MEAN_ELEMENT_THEORY":"SGP4","TLE_LINE2":"2 47752  53.0557 300.8012 0001799  48.7759 311.3385 15.06392962 93382","REV_AT_EPOCH":"9338","ECCENTRICITY":"0.00017990","MEAN_MOTION_DOT":"0.00000580","DECAY_DATE":null,"OBJECT_ID":"2021-017AG","BSTAR":"0.00005782700000"},{"COUNTRY_CODE":"US","MEAN_MOTION_DDOT":"0.0000000000000","TLE_LINE1":"1 47753U 21017AH  22305.72567839  .00000369  00000-0  43700-4 0  9992","REF_FRAME":"TEME","EPOCH":"2022-11-01T17:24:58.612896","GP_ID":"216685456","SEMIMAJOR_AXIS":"6925.347","MEAN_ELEMENT_THEORY":"SGP4","TLE_LINE2":"2 47753  53.0549 306.2178 0002231  40.2088 319.9066 15.06400370 93294","REV_AT_EPOCH":"9329","MEAN_MOTION_DOT":"0.00000369","ECCENTRICITY":"0.00022310","OBJECT_ID":"2021-017AH","DECAY_DATE":null,"BSTAR":"0.00004370000000","OBJECT_TYPE":"PAYLOAD","LAUNCH_DATE":"2021-03-04","INCLINATION":"53.0549","ARG_OF_PERICENTER":"40.2088","PERIAPSIS":"545.667","MEAN_ANOMALY":"319.9066","MEAN_MOTION":"15.06400370","RA_OF_ASC_NODE":"306.2178","SITE":"AFETR","OBJECT_NAME":"STARLINK-2170","RCS_SIZE":"LARGE","TIME_SYSTEM":"UTC","ELEMENT_SET_NO":"999","CLASSIFICATION_TYPE":"U","EPHEMERIS_TYPE":"0","FILE":"3640431","APOAPSIS":"548.757","NORAD_CAT_ID":"47753","PERIOD":"95.592","CENTER_NAME":"EARTH"},{"MEAN_ANOMALY":"318.8560","SITE":"AFETR","RA_OF_ASC_NODE":"306.3424","MEAN_MOTION":"15.06392326","LAUNCH_DATE":"2021-03-04","INCLINATION":"53.0536","OBJECT_TYPE":"PAYLOAD","PERIAPSIS":"545.671","ARG_OF_PERICENTER":"41.2600","APOAPSIS":"548.804","FILE":"3640431","NORAD_CAT_ID":"47754","PERIOD":"95.593","CENTER_NAME":"EARTH","RCS_SIZE":"LARGE","OBJECT_NAME":"STARLINK-2171","EPHEMERIS_TYPE":"0","CLASSIFICATION_TYPE":"U","TIME_SYSTEM":"UTC","ELEMENT_SET_NO":"999","MEAN_ELEMENT_THEORY":"SGP4","REV_AT_EPOCH":"9325","TLE_LINE2":"2 47754  53.0536 306.3424 0002262  41.2600 318.8560 15.06392326 93255","TLE_LINE1":"1 47754U 21017AJ  22305.69619278  .00000372  00000-0  43922-4 0  9994","MEAN_MOTION_DDOT":"0.0000000000000","COUNTRY_CODE":"US","SEMIMAJOR_AXIS":"6925.372","GP_ID":"216683708","EPOCH":"2022-11-01T16:42:31.056192","REF_FRAME":"TEME","DECAY_DATE":null,"OBJECT_ID":"2021-017AJ","BSTAR":"0.00004392200000","ECCENTRICITY":"0.00022620","MEAN_MOTION_DOT":"0.00000372"},{"REV_AT_EPOCH":"9326","TLE_LINE2":"2 47756  53.0552 307.2605 0002087  34.2806 325.8317 15.06400341 93267","MEAN_ELEMENT_THEORY":"SGP4","GP_ID":"216658217","SEMIMAJOR_AXIS":"6925.348","EPOCH":"2022-11-01T11:50:35.050272","REF_FRAME":"TEME","MEAN_MOTION_DDOT":"0.0000000000000","TLE_LINE1":"1 47756U 21017AL  22305.49346123  .00000433  00000-0  47992-4 0  9999","COUNTRY_CODE":"US","BSTAR":"0.00004799200000","DECAY_DATE":null,"OBJECT_ID":"2021-017AL","ECCENTRICITY":"0.00020870","MEAN_MOTION_DOT":"0.00000433","SITE":"AFETR","RA_OF_ASC_NODE":"307.2605","MEAN_MOTION":"15.06400341","MEAN_ANOMALY":"325.8317","PERIAPSIS":"545.767","ARG_OF_PERICENTER":"34.2806","LAUNCH_DATE":"2021-03-04","INCLINATION":"53.0552","OBJECT_TYPE":"PAYLOAD","PERIOD":"95.592","CENTER_NAME":"EARTH","NORAD_CAT_ID":"47756","APOAPSIS":"548.658","FILE":"3640409","EPHEMERIS_TYPE":"0","CLASSIFICATION_TYPE":"U","ELEMENT_SET_NO":"999","TIME_SYSTEM":"UTC","RCS_SIZE":"LARGE","OBJECT_NAME":"STARLINK-2174"}];
